#aV2019 10 15  0  0  0.00000000     288 DD+AD WGS84 FIT  NGA
## 2075 172800.00000000   300.00000000 58771 0.0000000000000
+   31     1  2  3  5  6  7  8  9 10 11 12 13 14 15 16 17 18
+         19 20 21 22 23 24 25 26 27 28 29 30 31 32  0  0  0
+          0  0  0  0  0  0  0  0  0  0  0  0  0  0  0  0  0
+          0  0  0  0  0  0  0  0  0  0  0  0  0  0  0  0  0
+          0  0  0  0  0  0  0  0  0  0  0  0  0  0  0  0  0
++         2  2  2  2  2  2  2  2  2  2  2  2  2  2  2  2  2
++         2  2  2  2  2  2  2  2  2  2  2  2  2  2  0  0  0
++         0  0  0  0  0  0  0  0  0  0  0  0  0  0  0  0  0
++         0  0  0  0  0  0  0  0  0  0  0  0  0  0  0  0  0
++         0  0  0  0  0  0  0  0  0  0  0  0  0  0  0  0  0
%c cc cc ccc ccc cccc cccc cccc cccc ccccc ccccc ccccc ccccc
%c cc cc ccc ccc cccc cccc cccc cccc ccccc ccccc ccccc ccccc
%f  0.0000000  0.000000000  0.00000000000  0.000000000000000
%f  0.0000000  0.000000000  0.00000000000  0.000000000000000
%i    0    0    0    0      0      0      0      0         0
%i    0    0    0    0      0      0      0      0         0
/*      NGA, ST. LOUIS,MO.                                  
/*   EPHEMERIS COMPUTED FROM 2 DAYS OF DATA                 
/*   EPOCHA v5 SMOOTHER                                     
/*   G1762 IERS2010 SATAF SATAPC                            
*  2019 10 15  0 40  0.00000000
P  1 -22422.147873 -14539.044500    568.738590   -162.830242                    
V  1    331.604765  -2222.074943 -31895.878271     -0.132251                    
P  2   7784.885769  18827.962613  17724.129696   -326.025281                    
V  2 -19227.493557  -9214.692306  18777.176429     -0.079197                    
P  3 -13334.733090 -11021.624444  20119.782419    -22.515723                    
V  3   2576.868601 -25534.085004 -12156.767356     -0.048670                    
P  5   3820.789026  25398.453311  -6487.175099     -2.336753                    
V  5  -3406.828112   8010.109171  30188.852655     -0.003840                    
P  6  -7195.451381  13061.916330  22019.898221    -90.655895                    
V  6 -23301.376367 -15178.610054   1417.422520     -0.128340                    
P  7 -22245.949387  -2867.125386 -14305.758101   -127.255838                    
V  7 -14145.094620 -12057.264294  23470.732805     -0.080673                    
P  8 -12098.600796 -10183.672410 -21336.321010     -9.923619                    
V  8  23854.179440 -12883.840150  -7158.174892     -0.013039                    
P  9 -24497.927671   6154.937562   8171.379076    -56.902599                    
V  9   7970.282922  -7338.319840  29237.828490     -0.101256                    
P 10  11508.311048 -18482.106929 -14997.285121    -94.341616                    
V 10   1029.728077  19328.427458 -23147.117894     -0.154006                    
P 11 -23380.154565  -9517.468476  -8263.965364   -477.955830                    
V 11  10443.624866  -2842.049089 -28334.997521      0.112607                    
P 12  10155.114227  16326.538286  18180.156731    193.979981                    
V 12  -4200.376236  23066.732511 -17997.979758     -0.038968                    
P 13   1866.762434  15230.366248 -21790.959057    -38.811720                    
V 13 -25929.827076   8773.957466   3999.016682      0.021750                    
P 14  11948.736315 -17257.689641  16490.871540    -56.086254                    
V 14  19620.050605  -5910.433381 -20995.107094      0.020461                    
P 15  14276.767148   9333.167951 -20720.564377   -279.851346                    
V 15 -21350.263648  14353.334349  -7970.676959      0.027119                    
P 16    389.465003 -25856.012994  -5122.859400    -83.364551                    
V 16   3357.221735  -5898.793572  31599.891991     -0.036224                    
P 17 -19970.625330  15170.336377   9031.091955    144.307793                    
V 17 -10720.609560   2610.627499 -29540.690238      0.069417                    
P 18 -18434.693421 -17571.276185  -8219.036999     93.086917                    
V 18   9699.207837   2707.300625 -29261.887870      0.027276                    
P 19 -15565.992558  15981.172503  14135.795623   -253.641622                    
V 19 -17817.947236   4931.964481 -24657.041451      0.052176                    
P 20  14576.220368  -9010.689588 -20354.889263    527.202243                    
V 20   2894.576498  25637.416704  -9508.936672      0.001175                    
P 21  20016.707244  -2056.615703 -16448.685051   -102.298075                    
V 21  18350.338980  13244.054855  19937.372983      0.061770                    
P 22 -12030.353546 -18013.982903  15650.773518   -763.954054                    
V 22   2156.797053 -19583.247758 -21081.089791     -0.032104                    
P 23 -20692.268786  -2983.678670  16947.279778   -161.396042                    
V 23  17552.386262 -11238.089762  19472.309572      0.021409                    
P 24  22270.470286  14706.899656  -2008.261159     -3.463265                    
V 24  -3637.370969   1600.102271 -30878.677151     -0.005683                    
P 25  14943.204673    620.143967  21733.268109    -15.369267                    
V 25  -1618.191329  28042.947549    558.553857     -0.009415                    
P 26   4807.577735 -25408.825378   5582.093360     61.659934                    
V 26   3009.996467   7257.491874  30544.913366      0.085848                    
P 27    929.710183 -16275.098744 -21014.991054    -87.756138                    
V 27  24001.093813 -11133.383804  10032.005692     -0.122149                    
P 28 -12258.794264  18661.857351 -13860.021160    759.005996                    
V 28   1013.728263 -18624.041789 -24787.480037     -0.013077                    
P 29  24424.301845  -3077.127710   9973.004726     71.121221                    
V 29 -10995.291870   6543.076604  28828.262458     -0.101420                    
P 30 -15329.710495   7347.786817 -20417.763570    -61.758493                    
V 30 -20574.314836 -15974.779746   9487.602107     -0.082097                    
P 31   5886.590140 -14314.500333  21530.231431      3.627664                    
V 31  22790.209182  15265.291969   4360.931960     -0.025546                    
P 32  19194.738085 -16310.406570   8278.529982     91.590019                    
V 32  10603.804496  -2249.101199 -29357.506300      0.129219                    
EOF
